LEMUR-2-AMANDA-SVANTE   
1 48269U 21034B   26068.77637527  .00030872  00000+0  11134-2 0  9996
2 48269  97.5829 144.8625 0002703 205.4721 154.6385 15.28469003265849
STARLINK-35400          
1 66333U 25253Q   26068.45622323  .00029684  00000+0  10821-2 0  9999
2 66333  43.0025 214.2678 0004876 154.7515 205.3576 15.27626543 20203
